{
    "links": {
        "self": "http://www.neowsapp.com/rest/v1/neo/3799773?api_key=iIulBulltgU6a56xZRHN4H3l9WmuAYTsLGpBGhQ2"
    },
    "id": "3799773",
    "neo_reference_id": "3799773",
    "name": "(2018 DO3)",
    "designation": "2018 DO3",
    "nasa_jpl_url": "http://ssd.jpl.nasa.gov/sbdb.cgi?sstr=3799773",
    "absolute_magnitude_h": 29.223,
    "estimated_diameter": {
        "kilometers": {
            "estimated_diameter_min": 0.0038014998,
            "estimated_diameter_max": 0.0085004121
        },
        "meters": {
            "estimated_diameter_min": 3.8014998405,
            "estimated_diameter_max": 8.5004120599
        },
        "miles": {
            "estimated_diameter_min": 0.0023621418,
            "estimated_diameter_max": 0.0052819095
        },
        "feet": {
            "estimated_diameter_min": 12.4721127369,
            "estimated_diameter_max": 27.8884919027
        }
    },
    "is_potentially_hazardous_asteroid": false,
    "close_approach_data": [
        {
            "close_approach_date": "2018-02-09",
            "close_approach_date_full": "2018-Feb-09 18:52",
            "epoch_date_close_approach": 1518202320000,
            "relative_velocity": {
                "kilometers_per_second": "14.7147723621",
                "kilometers_per_hour": "52973.1805035784",
                "miles_per_hour": "32915.4742967929"
            },
            "miss_distance": {
                "astronomical": "0.0113362409",
                "lunar": "4.4097977101",
                "kilometers": "1695877.492446883",
                "miles": "1053769.4098696654"
            },
            "orbiting_body": "Earth"
        }
    ],
    "orbital_data": {
        "orbit_id": "1",
        "orbit_determination_date": "2018-03-05 06:22:20",
        "first_observation_date": "2018-02-17",
        "last_observation_date": "2018-02-17",
        "data_arc_in_days": null,
        "observations_used": 63,
        "orbit_uncertainty": "9",
        "minimum_orbit_intersection": ".0107607",
        "jupiter_tisserand_invariant": "3.867",
        "epoch_osculation": "2458166.5",
        "eccentricity": ".5729917985653677",
        "semi_major_axis": "1.788863952164788",
        "inclination": "4.395466899603902",
        "ascending_node_longitude": "148.4831880465847",
        "orbital_period": "873.9053452844208",
        "perihelion_distance": ".763859578825134",
        "perihelion_argument": "284.0154852778246",
        "aphelion_distance": "2.813868325504441",
        "perihelion_time": "2458115.137794196183",
        "mean_anomaly": "21.1583487721502",
        "mean_motion": ".4119439272714765",
        "equinox": "J2000",
        "orbit_class": {
            "orbit_class_type": "APO",
            "orbit_class_description": "Near-Earth asteroid orbits which cross the Earth’s orbit similar to that of 1862 Apollo",
            "orbit_class_range": "a (semi-major axis) > 1.0 AU; q (perihelion) < 1.017 AU"
        }
    },
    "is_sentry_object": false
}